{
  "type": "FeatureCollection",
  "features": [
    {
      "type": "Feature",
      "properties": {
        "norad_id": 34761,
        "name": "COSMOS 2251 DEB",
        "group": "cosmos-2251-debris",
        "lat": -24.120947777753056,
        "lon": -0.8284244582298081,
        "alt_km": 759.6333817148334,
        "timestamp": "2025-12-10T16:57:12.034048+00:00",
        "meta_object_name": "COSMOS 2251 DEB",
        "meta_object_id": "1993-036AAF",
        "meta_epoch": "2025-12-10T12:03:38.570400",
        "meta_mean_motion": 14.38036351,
        "meta_eccentricity": 0.0036316,
        "meta_inclination": 74.0295,
        "meta_ra_of_asc_node": 6.9142,
        "meta_arg_of_pericenter": 41.6621,
        "meta_mean_anomaly": 318.7289,
        "meta_ephemeris_type": 0,
        "meta_classification_type": "U",
        "meta_norad_cat_id": 34761,
        "meta_element_set_no": 999,
        "meta_rev_at_epoch": 87617,
        "meta_bstar": 0.0008536,
        "meta_mean_motion_dot": 2.578e-05,
        "meta_mean_motion_ddot": 0,
        "tle_line1": "1 34761U 93036AAF 25344.50252975  .00002578  00000+0  85360-3 0  9991",
        "tle_line2": "2 34761  74.0295   6.9142 0036316  41.6621 318.7289 14.38036351876172"
      },
      "geometry": {
        "type": "Point",
        "coordinates": [
          -0.8284244582298081,
          -24.120947777753056
        ]
      }
    },
    {
      "type": "Feature",
      "properties": {
        "norad_id": 34784,
        "name": "COSMOS 2251 DEB",
        "group": "cosmos-2251-debris",
        "lat": 37.66550257320548,
        "lon": -18.961680836689798,
        "alt_km": 692.7033764617627,
        "timestamp": "2025-12-10T16:57:12.034058+00:00",
        "meta_object_name": "COSMOS 2251 DEB",
        "meta_object_id": "1993-036AAM",
        "meta_epoch": "2025-12-10T08:33:14.986080",
        "meta_mean_motion": 14.60761041,
        "meta_eccentricity": 0.0049485,
        "meta_inclination": 74.0077,
        "meta_ra_of_asc_node": 328.9177,
        "meta_arg_of_pericenter": 138.9494,
        "meta_mean_anomaly": 221.5413,
        "meta_ephemeris_type": 0,
        "meta_classification_type": "U",
        "meta_norad_cat_id": 34784,
        "meta_element_set_no": 999,
        "meta_rev_at_epoch": 88500,
        "meta_bstar": 0.00070133,
        "meta_mean_motion_dot": 3.453e-05,
        "meta_mean_motion_ddot": 0,
        "tle_line1": "1 34784U 93036AAM 25344.35642345  .00003453  00000+0  70133-3 0  9998",
        "tle_line2": "2 34784  74.0077 328.9177 0049485 138.9494 221.5413 14.60761041885007"
      },
      "geometry": {
        "type": "Point",
        "coordinates": [
          -18.961680836689798,
          37.66550257320548
        ]
      }
    },
    {
      "type": "Feature",
      "properties": {
        "norad_id": 34790,
        "name": "COSMOS 2251 DEB",
        "group": "cosmos-2251-debris",
        "lat": 65.83772813380236,
        "lon": -73.04289857841921,
        "alt_km": 841.029420003746,
        "timestamp": "2025-12-10T16:57:12.034068+00:00",
        "meta_object_name": "COSMOS 2251 DEB",
        "meta_object_id": "1993-036AAT",
        "meta_epoch": "2025-12-10T10:26:36.369888",
        "meta_mean_motion": 14.24618464,
        "meta_eccentricity": 0.0100594,
        "meta_inclination": 74.0542,
        "meta_ra_of_asc_node": 247.8553,
        "meta_arg_of_pericenter": 309.9809,
        "meta_mean_anomaly": 170.1192,
        "meta_ephemeris_type": 0,
        "meta_classification_type": "U",
        "meta_norad_cat_id": 34790,
        "meta_element_set_no": 999,
        "meta_rev_at_epoch": 86540,
        "meta_bstar": 0.0011544,
        "meta_mean_motion_dot": 2.802e-05,
        "meta_mean_motion_ddot": 0,
        "tle_line1": "1 34790U 93036AAT 25344.43514317  .00002802  00000+0  11544-2 0  9998",
        "tle_line2": "2 34790  74.0542 247.8553 0100594 309.9809 170.1192 14.24618464865402"
      },
      "geometry": {
        "type": "Point",
        "coordinates": [
          -73.04289857841921,
          65.83772813380236
        ]
      }
    },
    {
      "type": "Feature",
      "properties": {
        "norad_id": 34792,
        "name": "COSMOS 2251 DEB",
        "group": "cosmos-2251-debris",
        "lat": 28.85636285727473,
        "lon": -15.517733340947874,
        "alt_km": 708.7331258275017,
        "timestamp": "2025-12-10T16:57:12.034078+00:00",
        "meta_object_name": "COSMOS 2251 DEB",
        "meta_object_id": "1993-036AAV",
        "meta_epoch": "2025-12-09T12:22:02.661312",
        "meta_mean_motion": 14.55910931,
        "meta_eccentricity": 0.00125292,
        "meta_inclination": 74.0177,
        "meta_ra_of_asc_node": 175.8284,
        "meta_arg_of_pericenter": 269.6711,
        "meta_mean_anomaly": 119.962,
        "meta_ephemeris_type": 0,
        "meta_classification_type": "U",
        "meta_norad_cat_id": 34792,
        "meta_element_set_no": 999,
        "meta_rev_at_epoch": 87603,
        "meta_bstar": 0.0013597617,
        "meta_mean_motion_dot": 5.954e-05,
        "meta_mean_motion_ddot": 0,
        "tle_line1": "1 34792U 93036AAV 25343.51530858  .00005954  00000+0  13598-2 0  9998",
        "tle_line2": "2 34792  74.0177 175.8284 0012529 269.6711 119.9620 14.55910931876039"
      },
      "geometry": {
        "type": "Point",
        "coordinates": [
          -15.517733340947874,
          28.85636285727473
        ]
      }
    },
    {
      "type": "Feature",
      "properties": {
        "norad_id": 34793,
        "name": "COSMOS 2251 DEB",
        "group": "cosmos-2251-debris",
        "lat": 51.96392305898949,
        "lon": -84.36393642567734,
        "alt_km": 722.1645353828762,
        "timestamp": "2025-12-10T16:57:12.034089+00:00",
        "meta_object_name": "COSMOS 2251 DEB",
        "meta_object_id": "1993-036AAW",
        "meta_epoch": "2025-12-10T12:31:31.027296",
        "meta_mean_motion": 14.38638927,
        "meta_eccentricity": 0.0050205,
        "meta_inclination": 74.0029,
        "meta_ra_of_asc_node": 254.464,
        "meta_arg_of_pericenter": 49.1655,
        "meta_mean_anomaly": 130.6842,
        "meta_ephemeris_type": 0,
        "meta_classification_type": "U",
        "meta_norad_cat_id": 34793,
        "meta_element_set_no": 999,
        "meta_rev_at_epoch": 87298,
        "meta_bstar": 0.00042088,
        "meta_mean_motion_dot": 1.282e-05,
        "meta_mean_motion_ddot": 0,
        "tle_line1": "1 34793U 93036AAW 25344.52188689  .00001282  00000+0  42088-3 0  9999",
        "tle_line2": "2 34793  74.0029 254.4640 0050205  49.1655 130.6842 14.38638927872986"
      },
      "geometry": {
        "type": "Point",
        "coordinates": [
          -84.36393642567734,
          51.96392305898949
        ]
      }
    },
    {
      "type": "Feature",
      "properties": {
        "norad_id": 34796,
        "name": "COSMOS 2251 DEB",
        "group": "cosmos-2251-debris",
        "lat": 69.3015907012519,
        "lon": -90.5594696220765,
        "alt_km": 751.3221978862675,
        "timestamp": "2025-12-10T16:57:12.034099+00:00",
        "meta_object_name": "COSMOS 2251 DEB",
        "meta_object_id": "1993-036AAZ",
        "meta_epoch": "2025-12-10T02:22:55.926624",
        "meta_mean_motion": 14.48668134,
        "meta_eccentricity": 0.01002111,
        "meta_inclination": 74.0294,
        "meta_ra_of_asc_node": 221.2955,
        "meta_arg_of_pericenter": 323.9503,
        "meta_mean_anomaly": 186.6627,
        "meta_ephemeris_type": 0,
        "meta_classification_type": "U",
        "meta_norad_cat_id": 34796,
        "meta_element_set_no": 999,
        "meta_rev_at_epoch": 87989,
        "meta_bstar": 0.00086649883,
        "meta_mean_motion_dot": 3.449e-05,
        "meta_mean_motion_ddot": 0,
        "tle_line1": "1 34796U 93036AAZ 25344.09925841  .00003449  00000+0  86650-3 0  9993",
        "tle_line2": "2 34796  74.0294 221.2955 0100211 323.9503 186.6627 14.48668134879895"
      },
      "geometry": {
        "type": "Point",
        "coordinates": [
          -90.5594696220765,
          69.3015907012519
        ]
      }
    },
    {
      "type": "Feature",
      "properties": {
        "norad_id": 34797,
        "name": "COSMOS 2251 DEB",
        "group": "cosmos-2251-debris",
        "lat": -58.19875829904264,
        "lon": -48.61746082256935,
        "alt_km": 709.4555058720644,
        "timestamp": "2025-12-10T16:57:12.034109+00:00",
        "meta_object_name": "COSMOS 2251 DEB",
        "meta_object_id": "1993-036ABA",
        "meta_epoch": "2025-12-08T02:15:30.483648",
        "meta_mean_motion": 14.42690241,
        "meta_eccentricity": 0.00721111,
        "meta_inclination": 73.9779,
        "meta_ra_of_asc_node": 108.638,
        "meta_arg_of_pericenter": 222.8023,
        "meta_mean_anomaly": 136.7506,
        "meta_ephemeris_type": 0,
        "meta_classification_type": "U",
        "meta_norad_cat_id": 34797,
        "meta_element_set_no": 999,
        "meta_rev_at_epoch": 87348,
        "meta_bstar": 0.0033221371,
        "meta_mean_motion_dot": 0.00011397,
        "meta_mean_motion_ddot": 0,
        "tle_line1": "1 34797U 93036ABA 25342.09410282  .00011397  00000+0  33221-2 0  9996",
        "tle_line2": "2 34797  73.9779 108.6380 0072111 222.8023 136.7506 14.42690241873482"
      },
      "geometry": {
        "type": "Point",
        "coordinates": [
          -48.61746082256935,
          -58.19875829904264
        ]
      }
    }
  ]
}